{
 "type": "FeatureCollection",
 "name": "sectores_upeu_nana_v0",
 "crs": {
  "type": "name",
  "properties": {
   "name": "urn:ogc:def:crs:EPSG::32718"
  }
 },
 "features": [
  {
   "type": "Feature",
   "properties": {
    "id": 1,
    "nombre": "Sector 1",
    "provisional": false,
    "trazo": "croquis",
    "fuente": "Croquis de la zona 1 (foto del plano del campus, 08/10/2026) georreferenciado con 4 puntos de control (Google Maps: Auditorio Agustín Alva y Alva y Segunda garita UPeU; OpenStreetMap: canchas y campo deportivo), error 5–11 m. Límite exterior: contorno del campus en OpenStreetMap (way 701396579).",
    "licencia_contorno": "Contorno del campus © colaboradores de OpenStreetMap, licencia ODbL"
   },
   "geometry": {
    "type": "Polygon",
    "coordinates": [
     [
      [
       299305.87,
       8673480.61
      ],
      [
       299330.87,
       8673456.55
      ],
      [
       299338.91,
       8673442.88
      ],
      [
       299349.42,
       8673434.77
      ],
      [
       299359.95,
       8673423.22
      ],
      [
       299365.67,
       8673415.51
      ],
      [
       299365.75,
       8673404.01
      ],
      [
       299361.63,
       8673383.51
      ],
      [
       299361.61,
       8673370.9
      ],
      [
       299366.06,
       8673357.43
      ],
      [
       299376.96,
       8673340.03
      ],
      [
       299396.04,
       8673320.79
      ],
      [
       299409.48,
       8673313.58
      ],
      [
       299422.8,
       8673308.47
      ],
      [
       299471.69,
       8673294.75
      ],
      [
       299478.33,
       8673328.76
      ],
      [
       299483.45,
       8673344.5
      ],
      [
       299490.53,
       8673359.7
      ],
      [
       299538.48,
       8673438.47
      ],
      [
       299554.51,
       8673468.44
      ],
      [
       299551.33,
       8673471.19
      ],
      [
       299553.38,
       8673473.64
      ],
      [
       299555.0,
       8673475.53
      ],
      [
       299542.62,
       8673487.28
      ],
      [
       299533.71,
       8673499.84
      ],
      [
       299522.94,
       8673514.26
      ],
      [
       299507.66,
       8673535.07
      ],
      [
       299497.98,
       8673549.94
      ],
      [
       299478.89,
       8673554.34
      ],
      [
       299456.3,
       8673544.9
      ],
      [
       299419.96,
       8673538.9
      ],
      [
       299409.5,
       8673522.9
      ],
      [
       299393.97,
       8673515.61
      ],
      [
       299378.0,
       8673509.53
      ],
      [
       299360.08,
       8673501.44
      ],
      [
       299333.26,
       8673489.42
      ],
      [
       299325.7,
       8673480.74
      ],
      [
       299305.87,
       8673480.61
      ]
     ]
    ]
   }
  },
  {
   "type": "Feature",
   "properties": {
    "id": 2,
    "nombre": "Sector 2",
    "provisional": true,
    "trazo": "propuesta-asesor",
    "fuente": "Propuesta provisional del asesor (08/10/2026) siguiendo vías internas sobre imagen satelital. Límite exterior: contorno del campus en OpenStreetMap (way 701396579).",
    "licencia_contorno": "Contorno del campus © colaboradores de OpenStreetMap, licencia ODbL"
   },
   "geometry": {
    "type": "Polygon",
    "coordinates": [
     [
      [
       299148.06,
       8673690.43
      ],
      [
       299148.75,
       8673668.97
      ],
      [
       299172.89,
       8673641.91
      ],
      [
       299176.53,
       8673619.81
      ],
      [
       299178.4,
       8673600.13
      ],
      [
       299152.32,
       8673574.95
      ],
      [
       299153.0,
       8673555.26
      ],
      [
       299169.49,
       8673532.69
      ],
      [
       299208.17,
       8673514.37
      ],
      [
       299238.67,
       8673497.2
      ],
      [
       299240.2,
       8673528.52
      ],
      [
       299259.61,
       8673525.22
      ],
      [
       299305.87,
       8673480.61
      ],
      [
       299325.7,
       8673480.74
      ],
      [
       299333.26,
       8673489.42
      ],
      [
       299360.08,
       8673501.44
      ],
      [
       299378.0,
       8673509.53
      ],
      [
       299393.97,
       8673515.61
      ],
      [
       299409.5,
       8673522.9
      ],
      [
       299419.96,
       8673538.9
      ],
      [
       299456.3,
       8673544.9
      ],
      [
       299478.89,
       8673554.34
      ],
      [
       299497.98,
       8673549.94
      ],
      [
       299507.66,
       8673535.07
      ],
      [
       299522.94,
       8673514.26
      ],
      [
       299533.71,
       8673499.84
      ],
      [
       299542.62,
       8673487.28
      ],
      [
       299555.0,
       8673475.53
      ],
      [
       299559.43,
       8673481.09
      ],
      [
       299559.06,
       8673487.95
      ],
      [
       299572.57,
       8673503.75
      ],
      [
       299587.04,
       8673506.06
      ],
      [
       299640.27,
       8673543.81
      ],
      [
       299701.19,
       8673587.47
      ],
      [
       299822.41,
       8673670.04
      ],
      [
       299833.32,
       8673682.95
      ],
      [
       299841.42,
       8673693.29
      ],
      [
       299847.88,
       8673705.5
      ],
      [
       299849.16,
       8673708.83
      ],
      [
       299728.47,
       8673661.23
      ],
      [
       299541.53,
       8673650.68
      ],
      [
       299391.49,
       8673724.03
      ],
      [
       299276.0,
       8673761.43
      ],
      [
       299234.37,
       8673716.01
      ],
      [
       299193.79,
       8673742.4
      ],
      [
       299148.06,
       8673690.43
      ]
     ]
    ]
   }
  },
  {
   "type": "Feature",
   "properties": {
    "id": 3,
    "nombre": "Sector 3",
    "provisional": true,
    "trazo": "propuesta-asesor",
    "fuente": "Propuesta provisional del asesor (08/10/2026) siguiendo vías internas sobre imagen satelital. Límite exterior: contorno del campus en OpenStreetMap (way 701396579).",
    "licencia_contorno": "Contorno del campus © colaboradores de OpenStreetMap, licencia ODbL"
   },
   "geometry": {
    "type": "Polygon",
    "coordinates": [
     [
      [
       299276.0,
       8673761.43
      ],
      [
       299391.49,
       8673724.03
      ],
      [
       299541.53,
       8673650.68
      ],
      [
       299728.47,
       8673661.23
      ],
      [
       299849.16,
       8673708.83
      ],
      [
       299856.66,
       8673727.58
      ],
      [
       299859.85,
       8673755.04
      ],
      [
       299840.5,
       8673765.64
      ],
      [
       299837.76,
       8673784.76
      ],
      [
       299849.63,
       8673801.99
      ],
      [
       299838.59,
       8673857.01
      ],
      [
       299823.54,
       8673924.18
      ],
      [
       299708.06,
       8673911.9
      ],
      [
       299539.79,
       8673910.78
      ],
      [
       299399.05,
       8673944.8
      ],
      [
       299361.5,
       8673924.74
      ],
      [
       299404.71,
       8673831.54
      ],
      [
       299435.96,
       8673801.0
      ],
      [
       299427.81,
       8673781.14
      ],
      [
       299382.99,
       8673772.76
      ],
      [
       299350.32,
       8673756.28
      ],
      [
       299298.17,
       8673785.58
      ],
      [
       299276.0,
       8673761.43
      ]
     ]
    ]
   }
  },
  {
   "type": "Feature",
   "properties": {
    "id": 4,
    "nombre": "Sector 4",
    "provisional": true,
    "trazo": "propuesta-asesor",
    "fuente": "Propuesta provisional del asesor (08/10/2026) siguiendo vías internas sobre imagen satelital. Límite exterior: contorno del campus en OpenStreetMap (way 701396579).",
    "licencia_contorno": "Contorno del campus © colaboradores de OpenStreetMap, licencia ODbL"
   },
   "geometry": {
    "type": "Polygon",
    "coordinates": [
     [
      [
       299260.06,
       8674108.94
      ],
      [
       299375.92,
       8674033.37
      ],
      [
       299419.39,
       8673998.26
      ],
      [
       299402.2,
       8673946.48
      ],
      [
       299399.05,
       8673944.8
      ],
      [
       299539.79,
       8673910.78
      ],
      [
       299708.06,
       8673911.9
      ],
      [
       299823.54,
       8673924.18
      ],
      [
       299815.8,
       8673958.64
      ],
      [
       299780.24,
       8674097.47
      ],
      [
       299707.07,
       8674060.59
      ],
      [
       299595.01,
       8674041.25
      ],
      [
       299389.01,
       8674095.53
      ],
      [
       299260.06,
       8674108.94
      ]
     ]
    ]
   }
  },
  {
   "type": "Feature",
   "properties": {
    "id": 5,
    "nombre": "Sector 5",
    "provisional": true,
    "trazo": "propuesta-asesor",
    "fuente": "Propuesta provisional del asesor (08/10/2026) siguiendo vías internas sobre imagen satelital. Límite exterior: contorno del campus en OpenStreetMap (way 701396579).",
    "licencia_contorno": "Contorno del campus © colaboradores de OpenStreetMap, licencia ODbL"
   },
   "geometry": {
    "type": "Polygon",
    "coordinates": [
     [
      [
       299130.96,
       8674227.89
      ],
      [
       299135.23,
       8674207.67
      ],
      [
       299157.03,
       8674174.08
      ],
      [
       299200.44,
       8674147.7
      ],
      [
       299260.06,
       8674108.94
      ],
      [
       299389.01,
       8674095.53
      ],
      [
       299595.01,
       8674041.25
      ],
      [
       299707.07,
       8674060.59
      ],
      [
       299780.24,
       8674097.47
      ],
      [
       299777.77,
       8674107.41
      ],
      [
       299776.32,
       8674112.94
      ],
      [
       299931.84,
       8674180.47
      ],
      [
       300197.39,
       8674295.08
      ],
      [
       300201.71,
       8674301.08
      ],
      [
       300174.57,
       8674369.39
      ],
      [
       300145.78,
       8674357.69
      ],
      [
       300135.79,
       8674385.72
      ],
      [
       300010.38,
       8674327.69
      ],
      [
       299967.93,
       8674420.23
      ],
      [
       299909.06,
       8674395.61
      ],
      [
       299810.85,
       8674358.45
      ],
      [
       299801.55,
       8674347.43
      ],
      [
       299790.44,
       8674347.91
      ],
      [
       299781.6,
       8674366.44
      ],
      [
       299763.42,
       8674364.55
      ],
      [
       299727.44,
       8674354.24
      ],
      [
       299723.55,
       8674348.9
      ],
      [
       299721.61,
       8674329.42
      ],
      [
       299711.15,
       8674314.85
      ],
      [
       299693.64,
       8674310.64
      ],
      [
       299678.03,
       8674298.92
      ],
      [
       299666.38,
       8674282.03
      ],
      [
       299657.84,
       8674255.86
      ],
      [
       299635.09,
       8674253.39
      ],
      [
       299622.37,
       8674233.61
      ],
      [
       299602.37,
       8674244.98
      ],
      [
       299556.29,
       8674245.89
      ],
      [
       299531.26,
       8674225.37
      ],
      [
       299496.22,
       8674220.38
      ],
      [
       299484.45,
       8674237.33
      ],
      [
       299449.82,
       8674253.92
      ],
      [
       299407.25,
       8674251.31
      ],
      [
       299318.91,
       8674268.09
      ],
      [
       299248.48,
       8674309.99
      ],
      [
       299193.91,
       8674262.06
      ],
      [
       299169.21,
       8674274.06
      ],
      [
       299130.96,
       8674227.89
      ]
     ]
    ]
   }
  }
 ]
}